STARLINK-32510          
1 62040U 24216J   26068.52684532  .00025524  00000+0  93471-3 0  9998
2 62040  42.9971 264.7697 0000959 195.8026 164.2795 15.27549679 73763
TEVEL2-7                
1 63238U 25052AE  26068.66113295  .00019244  00000+0  69668-3 0  9998
2 63238  97.4054 324.3041 0008105 124.6830 235.5175 15.28414096 54803
